YAM-10                  
1 64580U 25135BE  26204.29675079  .00001313  00000+0  13532-3 0  9992
2 64580  97.7756 317.6545 0002253 206.2170 153.8935 14.91920784 59246
YAM-11                  
1 68991U 26100M   26204.16995128  .00001145  00000+0  12252-3 0  9992
2 68991  97.7819 100.8105 0009085 334.3537  25.7229 14.90616986 12056
YAM-16                  
1 68992U 26100N   26204.17787253  .00001269  00000+0  13218-3 0  9992
2 68992  97.7327 100.9247 0004376  43.9349 316.2217 14.91531809 12068
YAM-13                  
1 68993U 26100P   26204.19344478  .00001326  00000+0  14170-3 0  9995
2 68993  97.7854 100.9380 0008922 331.5912  28.4818 14.90427234 12069
YAM-15                  
1 68997U 26100T   26204.17867573  .00001249  00000+0  13304-3 0  9995
2 68997  97.7852 100.9502 0008731 346.2908  13.8072 14.90664100 12068
YAM-12                  
1 69003U 26100Z   26204.15389175  .00003238  00000+0  33734-3 0  9998
2 69003  97.7833 100.8111 0009232 326.2128  33.8501 14.90473469 12043
YAM-14                  
1 69008U 26100AE  26204.14736318  .00001214  00000+0  13047-3 0  9994
2 69008  97.7841 100.8259 0005503  14.5323 345.6052 14.90368481 12043
