{"fetched_at":"2026-07-23T17:56:02.165Z","source":"https://celestrak.org/NORAD/elements/gp.php?NAME=YAM&FORMAT=JSON","constellation":"earthdaily-constellation","records":[{"OBJECT_NAME":"YAM-10","OBJECT_ID":"2025-135BE","EPOCH":"2026-07-23T07:07:19.268256","CLASSIFICATION_TYPE":"U","MEAN_MOTION":14.91920784,"ECCENTRICITY":0.00022536,"INCLINATION":97.7756,"RA_OF_ASC_NODE":317.6545,"ARG_OF_PERICENTER":206.217,"MEAN_ANOMALY":153.8935,"EPHEMERIS_TYPE":0,"NORAD_CAT_ID":64580,"ELEMENT_SET_NO":999,"REV_AT_EPOCH":5924,"BSTAR":0.00013531994,"MEAN_MOTION_DOT":0.00001313,"MEAN_MOTION_DDOT":0},{"OBJECT_NAME":"YAM-11","OBJECT_ID":"2026-100M","EPOCH":"2026-07-23T04:04:43.790592","CLASSIFICATION_TYPE":"U","MEAN_MOTION":14.90616986,"ECCENTRICITY":0.00090855,"INCLINATION":97.7819,"RA_OF_ASC_NODE":100.8105,"ARG_OF_PERICENTER":334.3537,"MEAN_ANOMALY":25.7229,"EPHEMERIS_TYPE":0,"NORAD_CAT_ID":68991,"ELEMENT_SET_NO":999,"REV_AT_EPOCH":1205,"BSTAR":0.0001225192,"MEAN_MOTION_DOT":0.00001145,"MEAN_MOTION_DDOT":0},{"OBJECT_NAME":"YAM-16","OBJECT_ID":"2026-100N","EPOCH":"2026-07-23T04:16:08.186592","CLASSIFICATION_TYPE":"U","MEAN_MOTION":14.91531809,"ECCENTRICITY":0.00043763,"INCLINATION":97.7327,"RA_OF_ASC_NODE":100.9247,"ARG_OF_PERICENTER":43.9349,"MEAN_ANOMALY":316.2217,"EPHEMERIS_TYPE":0,"NORAD_CAT_ID":68992,"ELEMENT_SET_NO":999,"REV_AT_EPOCH":1206,"BSTAR":0.00013217918,"MEAN_MOTION_DOT":0.00001269,"MEAN_MOTION_DDOT":0},{"OBJECT_NAME":"YAM-13","OBJECT_ID":"2026-100P","EPOCH":"2026-07-23T04:38:33.628992","CLASSIFICATION_TYPE":"U","MEAN_MOTION":14.90427234,"ECCENTRICITY":0.0008922,"INCLINATION":97.7854,"RA_OF_ASC_NODE":100.938,"ARG_OF_PERICENTER":331.5912,"MEAN_ANOMALY":28.4818,"EPHEMERIS_TYPE":0,"NORAD_CAT_ID":68993,"ELEMENT_SET_NO":999,"REV_AT_EPOCH":1206,"BSTAR":0.00014169817,"MEAN_MOTION_DOT":0.00001326,"MEAN_MOTION_DDOT":0},{"OBJECT_NAME":"YAM-15","OBJECT_ID":"2026-100T","EPOCH":"2026-07-23T04:17:17.583072","CLASSIFICATION_TYPE":"U","MEAN_MOTION":14.906641,"ECCENTRICITY":0.00087318,"INCLINATION":97.7852,"RA_OF_ASC_NODE":100.9502,"ARG_OF_PERICENTER":346.2908,"MEAN_ANOMALY":13.8072,"EPHEMERIS_TYPE":0,"NORAD_CAT_ID":68997,"ELEMENT_SET_NO":999,"REV_AT_EPOCH":1206,"BSTAR":0.00013304007,"MEAN_MOTION_DOT":0.00001249,"MEAN_MOTION_DDOT":0},{"OBJECT_NAME":"YAM-12","OBJECT_ID":"2026-100Z","EPOCH":"2026-07-23T03:41:36.247200","CLASSIFICATION_TYPE":"U","MEAN_MOTION":14.90473469,"ECCENTRICITY":0.00092328,"INCLINATION":97.7833,"RA_OF_ASC_NODE":100.8111,"ARG_OF_PERICENTER":326.2128,"MEAN_ANOMALY":33.8501,"EPHEMERIS_TYPE":0,"NORAD_CAT_ID":69003,"ELEMENT_SET_NO":999,"REV_AT_EPOCH":1204,"BSTAR":0.0003373388,"MEAN_MOTION_DOT":0.00003238,"MEAN_MOTION_DDOT":0},{"OBJECT_NAME":"YAM-14","OBJECT_ID":"2026-100AE","EPOCH":"2026-07-23T03:32:12.178752","CLASSIFICATION_TYPE":"U","MEAN_MOTION":14.90368481,"ECCENTRICITY":0.00055036,"INCLINATION":97.7841,"RA_OF_ASC_NODE":100.8259,"ARG_OF_PERICENTER":14.5323,"MEAN_ANOMALY":345.6052,"EPHEMERIS_TYPE":0,"NORAD_CAT_ID":69008,"ELEMENT_SET_NO":999,"REV_AT_EPOCH":1204,"BSTAR":0.0001304688,"MEAN_MOTION_DOT":0.00001214,"MEAN_MOTION_DDOT":0}]}
